0 TITAN 3C TRANSTAGE DEB
1 28821U 65108CJ  13283.30200994 -.00000133  00000-0  00000+0 0  3121
2 28821 027.9209 203.6974 6509388 146.9731 342.8100 02.63500169 89369
0 TITAN 3C TRANSTAGE DEB
1 28821U 65108CJ  13287.02564452 -.00000161  00000-0  00000+0 0  3138
2 28821 027.9223 202.4272 6507496 149.0635 275.0281 02.63498294 89461
0 TITAN 3C TRANSTAGE DEB
1 28821U 65108CJ  13287.11210771 -.00000161  00000-0  00000+0 0  3141
2 28821 027.9229 202.3832 6508962 149.1222 357.0316 02.63501333 89469
0 TITAN 3C TRANSTAGE DEB
1 28821U 65108CJ  13292.04262272 -.00000093  00000-0  00000+0 0  3157
2 28821 027.9268 200.6841 6508505 151.8969 354.0997 02.63502703 89592
